2024-128A               
1 60235U 24128A   24208.85166380  .00003319  00000+0  31850-3 0  9991
2 60235  61.9966 102.9863 0016587 266.8289  93.0901 14.95023611  2547
2024-128B               
1 60236U 24128B   24208.83032423  .00002833  00000+0  26225-3 0  9990
2 60236  61.9946 102.8935 0010529 292.8396  67.1580 14.96894947  2547
GRBBETA                 
1 60237U 24128C   24208.36217802  .00005076  00000+0  45512-3 0  9997
2 60237  61.9945 104.5064 0010473 291.6520  68.3452 14.96982509  2467
2024-128D               
1 60238U 24128D   24208.36147423  .00007316  00000+0  64649-3 0  9990
2 60238  61.9945 104.5033 0010416 291.4228  68.5748 14.97089209  2471
2024-128E               
1 60239U 24128E   24208.83237711  .00001915  00000+0  18366-3 0  9997
2 60239  62.0141 102.9492 0009629 305.0315  54.9870 14.96706061  2540
OOV-CUBE                
1 60240U 24128F   24208.83594907  .00003472  00000+0  32140-3 0  9998
2 60240  61.9980 102.9300 0010202 275.1032  84.8891 14.96411680  2546
2024-128G               
1 60241U 24128G   24208.36127164  .00005517  00000+0  49201-3 0  9992
2 60241  61.9946 104.5025 0010404 293.3346  66.6647 14.97073878  2478
2024-128H               
1 60242U 24128H   24208.37293339  .00008015  00000+0  72492-3 0  9996
2 60242  61.9854 104.5281 0013365 273.5820  86.3739 14.96060934  2476
ROBUSTA-3A (MEDITERRAN*)
1 60243U 24128J   24208.84290098  .00007369  00000+0  67111-3 0  9991
2 60243  61.9920 102.9431 0012736 264.1463  95.8173 14.95877964  2543
CATSAT                  
1 60246U 24125J   24208.88124460  .00012829  00000+0  58770-3 0  9992
2 60246  97.3026  62.4216 0053967 136.2770 224.2759 15.19281031  1568
2024-130A               
1 60249U 24130A   24208.81413587  .00147766  66490-5  89301-3 0  9999
2 60249  97.4776 278.3066 0315925 163.6329 197.5406 15.31986322  1171
2024-130B               
1 60250U 24130B   24208.23293705  .00446013  65344-4  10191-2 0  9998
2 60250  97.4224 278.0851 0177329 147.5417 213.6904 15.75524230  1114
NOAA 1                  
1 04793U 70106A   24208.60558132 -.00000029  00000+0  86496-4 0  9991
2 04793 101.4435 259.3972 0031058 259.5428 268.9463 12.54030151454128
NOAA 2 (ITOS-D)         
1 06235U 72082A   24208.45404649 -.00000029  00000+0  11320-3 0  9998
2 06235 102.0161 207.8793 0004437  49.8137  77.5591 12.53182959368427
NOAA 3                  
1 06920U 73086A   24208.40944867 -.00000030  00000+0  11862-3 0  9993
2 06920 102.2771 204.7411 0006251 317.2237 143.9262 12.40369043296250
NOAA 4                  
1 07529U 74089A   24208.50767884 -.00000030  00000+0  10094-3 0  9992
2 07529 101.9888 203.1326 0009445  73.7287  40.5763 12.53181945273009
NOAA 5                  
1 09057U 76077A   24208.41573061 -.00000014  00000+0  24091-3 0  9995
2 09057 102.2093 181.7771 0009601 160.9534 352.0251 12.37802939169004
TIROS N                 
1 11060U 78096A   24208.55846905  .00000300  00000+0  16395-3 0  9995
2 11060  98.5300 247.4778 0011683  83.5830 276.6676 14.18859111580798
NOAA 6                  
1 11416U 79057A   24208.79928077  .00000541  00000+0  20720-3 0  9999
2 11416  98.6277 229.9734 0010885 138.4231 221.7784 14.34589607352147
NOAA 7                  
1 12553U 81059A   24208.29594624  .00000114  00000+0  78132-4 0  9996
2 12553  98.8912 267.6519 0012512  83.9609 276.2991 14.17547506226856
NOAA 8                  
1 13923U 83022A   24208.55682136  .00000297  00000+0  13421-3 0  9996
2 13923  98.7310 208.5925 0015970 116.2300 244.0525 14.29285411152393
NOAA 9                  
1 15427U 84123A   24208.59954322  .00000236  00000+0  14139-3 0  9993
2 15427  99.1191 207.0047 0015362 141.7089 356.3683 14.16628155 45628
NOAA 10                 
1 16969U 86073A   24208.77550552  .00000285  00000+0  13087-3 0  9993
2 16969  98.6428 194.3407 0011414 211.5771 202.2307 14.28657795971066
NOAA 11                 
1 19531U 88089A   24208.44632781  .00000146  00000+0  95609-4 0  9996
2 19531  98.5205 169.2858 0012119 118.8320 241.4073 14.15556235849993
NOAA 12                 
1 21263U 91032A   24208.56012846  .00000218  00000+0  10869-3 0  9994
2 21263  98.5594 198.7913 0012577 244.8102 115.1775 14.26343147726497
NOAA 13                 
1 22739U 93050A   24208.50969637  .00000234  00000+0  14749-3 0  9997
2 22739  98.6080 164.5249 0008555 306.1525  53.8856 14.13245691595800
NOAA 14                 
1 23455U 94089A   24208.56416778  .00000103  00000+0  75331-4 0  9995
2 23455  98.4337 202.3896 0008250 269.5723  90.4506 14.14413890525566
NOAA 15                 
1 25338U 98030A   24208.79314650  .00000355  00000+0  16482-3 0  9998
2 25338  98.5672 235.0906 0009837 202.6179 157.4569 14.26639231363083
NOAA 16                 
1 26536U 00055A   24208.86229476  .00000142  00000+0  97391-4 0  9991
2 26536  98.5292 246.6421 0011519 119.5122 240.7202 14.13606109229687
NOAA 17                 
1 27453U 02032A   24208.86367266  .00000324  00000+0  15535-3 0  9998
2 27453  98.7645 159.4379 0011408 188.0383 172.0615 14.25625147148614
NOAA 18                 
1 28654U 05018A   24208.85518851  .00000322  00000+0  19551-3 0  9996
2 28654  98.8735 285.4901 0013288 313.6653  46.3416 14.13263137988869
NOAA 19                 
1 33591U 09005A   24208.81227015  .00000297  00000+0  18318-3 0  9998
2 33591  99.0449 265.0265 0013982 176.4170 183.7104 14.13057502797222
SUOMI NPP               
1 37849U 11061A   24208.79615684  .00000166  00000+0  99453-4 0  9998
2 37849  98.7222 146.1824 0001732 111.3548 248.7814 14.19535295660487
NOAA 20 (JPSS-1)        
1 43013U 17073A   24208.81319002  .00000153  00000+0  93282-4 0  9995
2 43013  98.7064 146.0720 0002336  98.6159 261.5282 14.19548661346520
NOAA 21 (JPSS-2)        
1 54234U 22150A   24208.84893287  .00000173  00000+0  10274-3 0  9990
2 54234  98.7518 146.2794 0001752  64.8190 295.3167 14.19534903 88608
ISS (ZARYA)             
1 25544U 98067A   24208.85544980  .00020406  00000+0  36004-3 0  9996
2 25544  51.6379 118.8113 0009985 111.4849 248.7206 15.50313518464707
CSS (TIANHE)            
1 48274U 21035A   24208.27315138  .00018124  00000+0  22940-3 0  9997
2 48274  41.4681 204.5133 0002182 308.5101  51.5542 15.59068275185217
ISS (NAUKA)             
1 49044U 21066A   24208.27530118  .00018840  00000+0  33340-3 0  9995
2 49044  51.6383 121.6862 0009992 109.4030 250.8040 15.50287673170585
FREGAT DEB              
1 49271U 11037PF  24208.41930871  .00016254  00000+0  31615-1 0  9998
2 49271  51.6790 234.9821 0995024 211.6467 142.0682 12.19669628139981
CSS (WENTIAN)           
1 53239U 22085A   24208.27315138  .00018124  00000+0  22940-3 0  9990
2 53239  41.4681 204.5133 0002182 308.5101  51.5542 15.59068275183379
CSS (MENGTIAN)          
1 54216U 22143A   24208.27315138  .00018124  00000+0  22940-3 0  9991
2 54216  41.4681 204.5133 0002182 308.5101  51.5542 15.59068275 98055
TIANZHOU-7              
1 58811U 24013A   24208.27315138  .00018124  00000+0  22940-3 0  9994
2 58811  41.4681 204.5133 0002182 308.5101  51.5542 15.59068275183370
PROGRESS-MS 26          
1 58961U 24029A   24208.27530118  .00018840  00000+0  33340-3 0  9995
2 58961  51.6383 121.6862 0009992 109.4030 250.8040 15.50287673 25032
CREW DRAGON 8           
1 59097U 24042A   24208.27530118  .00018840  00000+0  33340-3 0  9991
2 59097  51.6383 121.6862 0009992 109.4030 250.8040 15.50287673 22243
SOYUZ-MS 25             
1 59294U 24055A   24208.27530118  .00018840  00000+0  33340-3 0  9994
2 59294  51.6383 121.6862 0009992 109.4030 250.8040 15.50287673 19237
MICROORBITER-1          
1 59483U 98067WF  24208.18868219  .00325243  00000+0  16285-2 0  9990
2 59483  51.6280 112.0528 0007298 139.4411 220.7135 15.80287706 16619
CURTIS                  
1 59507U 98067WG  24208.13715289  .00159866  00000+0  12356-2 0  9991
2 59507  51.6291 114.7265 0006401 126.8515 233.3070 15.70855969 16580
KASHIWA                 
1 59508U 98067WH  24208.76082091  .00492678  00000+0  16843-2 0  9995
2 59508  51.6232 107.5898 0007436 162.1146 198.0122 15.87898247 16736
1998-067WJ              
1 59559U 98067WJ  24208.02843401  .00146781  00000+0  12262-2 0  9992
2 59559  51.6324 116.2774 0005268 101.8003 258.3585 15.69035953 15422
1998-067WK              
1 59560U 98067WK  24208.71806627  .01164171  71313-3  21102-2 0  9995
2 59560  51.6209 106.5365 0007254 195.5237 164.5551 16.00964162 15532
1998-067WL              
1 59561U 98067WL  24208.16565196  .00053782  00000+0  66774-3 0  9998
2 59561  51.6336 118.7019 0004705  95.5617 264.5912 15.59457596 15379
BURSTCUBE               
1 59562U 98067WM  24208.15396995  .00156562  00000+0  12917-2 0  9996
2 59562  51.6329 115.6198 0006693 123.5682 236.5955 15.69294015 15426
SNOOPI                  
1 59563U 98067WN  24208.17098985  .00119125  00000+0  11156-2 0  9995
2 59563  51.6341 116.4922 0006154 123.9175 236.2407 15.66326353 15414
SHENZHOU-18 (SZ-18)     
1 59591U 24078A   24208.27315138  .00018124  00000+0  22940-3 0  9991
2 59591  41.4681 204.5133 0002182 308.5101  51.5542 15.59068275 13244
1998-067WP              
1 59596U 98067WP  24208.14093133  .00237501  00000+0  15055-2 0  9999
2 59596  51.6300 114.0099 0005683 119.8252 240.3313 15.75260342 15473
1998-067WQ              
1 59597U 98067WQ  24208.32407641  .00243156  00000+0  15183-2 0  9998
2 59597  51.6350 113.0053 0005808 117.7576 242.4013 15.75588319 15470
SZ-17 MODULE            
1 59624U 23164C   24208.67088677  .00046904  00000+0  39950-3 0  9998
2 59624  41.4752 200.5303 0007417 182.5093 177.5713 15.68698404 13737
PROGRESS-MS 27          
1 59913U 24103A   24208.27530118  .00018840  00000+0  33340-3 0  9996
2 59913  51.6383 121.6862 0009992 109.4030 250.8040 15.50287673  8682
